{"epoch":1784710044,"count":18256,"objects":[{"id":"67795","name":"KUIPER-00279","type":"PAYLOAD","l1":"1 67795U 26030AH  26202.33112204  .00002304  00000-0  33096-3 0  9996","l2":"2 67795  51.9036 307.1777 0000813 195.1573 164.9365 14.79957190 25457"},{"id":"68573","name":"KUIPER-00131","type":"PAYLOAD","l1":"1 68573U 26072A   26201.85457610  .00001976  00000-0  28804-3 0  9991","l2":"2 68573  51.9019  46.7721 0000692 112.8393 247.2643 14.79945665 16109"},{"id":"68574","name":"KUIPER-00189","type":"PAYLOAD","l1":"1 68574U 26072B   26202.29083545  .00002221  00000-0  32025-3 0  9997","l2":"2 68574  51.9011  47.3269 0000783 124.1486 235.9551 14.79939525 16139"},{"id":"68575","name":"KUIPER-00192","type":"PAYLOAD","l1":"1 68575U 26072C   26202.53256050  .00002401  00000-0  34365-3 0  9997","l2":"2 68575  51.9006  41.2708 0000818 121.7756 238.3286 14.79950718 16248"},{"id":"68576","name":"KUIPER-00193","type":"PAYLOAD","l1":"1 68576U 26072D   26202.54337665  .00002120  00000-0  30716-3 0  9995","l2":"2 68576  51.9065  31.2425 0001295   1.7395 358.3572 14.79922693 16382"},{"id":"68577","name":"KUIPER-00194","type":"PAYLOAD","l1":"1 68577U 26072E   26202.56902242  .00002737  00000-0  38789-3 0  9999","l2":"2 68577  51.9026  38.6239 0000576 144.2121 215.8880 14.79937514 16281"},{"id":"68578","name":"KUIPER-00229","type":"PAYLOAD","l1":"1 68578U 26072F   26202.56362088  .00002291  00000-0  32922-3 0  9996","l2":"2 68578  51.9027  43.6340 0000876 131.2436 228.8602 14.79953626 16211"},{"id":"68579","name":"KUIPER-00230","type":"PAYLOAD","l1":"1 68579U 26072G   26202.48984728  .00008574  00000-0  23312-3 0  9992","l2":"2 68579  51.8769  10.6119 0002571 135.1991 224.9204 15.38368374 16665"},{"id":"68580","name":"KUIPER-00231","type":"PAYLOAD","l1":"1 68580U 26072H   26202.58335648 -.00044164  00000-0 -55433-2 0  9991","l2":"2 68580  51.8997  15.8768 0003049  94.3639 347.0076 14.81833445  4971"},{"id":"68581","name":"KUIPER-00234","type":"PAYLOAD","l1":"1 68581U 26072J   26201.99505625  .00002047  00000-0  29770-3 0  9998","l2":"2 68581  51.9010  41.1401 0000183 158.7215 201.3755 14.79900686 16198"},{"id":"68582","name":"KUIPER-00236","type":"PAYLOAD","l1":"1 68582U 26072K   26202.18827977  .00017138  00000-0  45778-3 0  9991","l2":"2 68582  51.8788  12.3404 0002886 135.8947 224.2271 15.38193904 16610"},{"id":"68583","name":"KUIPER-00244","type":"PAYLOAD","l1":"1 68583U 26072L   26202.51227922  .00002380  00000-0  34101-3 0  9994","l2":"2 68583  51.9016  28.8750 0001440 138.0831 222.0242 14.79952673 16416"},{"id":"68584","name":"KUIPER-00253","type":"PAYLOAD","l1":"1 68584U 26072M   26202.23949213  .00002185  00000-0  31552-3 0  9998","l2":"2 68584  51.9047  32.5878 0000660 108.1390 251.9644 14.79938834 16336"},{"id":"68585","name":"KUIPER-00254","type":"PAYLOAD","l1":"1 68585U 26072N   26202.54066834  .00002289  00000-0  32914-3 0  9990","l2":"2 68585  51.9045  33.7540 0001797 130.5966 229.5153 14.79945954 16342"},{"id":"68586","name":"KUIPER-00263","type":"PAYLOAD","l1":"1 68586U 26072P   26202.58335648 -.00017718  00000-0 -22984-2 0  9997","l2":"2 68586  51.9027  18.6420 0000716 105.9184  34.9148 14.79984436  5449"},{"id":"68587","name":"KUIPER-00269","type":"PAYLOAD","l1":"1 68587U 26072Q   26201.81132820  .00001713  00000-0  25353-3 0  9990","l2":"2 68587  51.9014  24.4718 0000437  79.0959 281.0053 14.79961901 16413"}]}