{"fetched_at":"2026-07-22T07:09:20.374Z","source":"https://celestrak.org/NORAD/elements/gp.php?GROUP=kuiper&FORMAT=JSON","constellation":"kuiper","records":[{"OBJECT_NAME":"KUIPER-00279","OBJECT_ID":"2026-030AH","EPOCH":"2026-07-21T07:56:48.944256","CLASSIFICATION_TYPE":"U","MEAN_MOTION":14.7995719,"ECCENTRICITY":0.00008127,"INCLINATION":51.9036,"RA_OF_ASC_NODE":307.1777,"ARG_OF_PERICENTER":195.1573,"MEAN_ANOMALY":164.9365,"EPHEMERIS_TYPE":0,"NORAD_CAT_ID":67795,"ELEMENT_SET_NO":999,"REV_AT_EPOCH":2545,"BSTAR":0.00033095746,"MEAN_MOTION_DOT":0.00002304,"MEAN_MOTION_DDOT":0},{"OBJECT_NAME":"KUIPER-00131","OBJECT_ID":"2026-072A","EPOCH":"2026-07-20T20:30:35.375040","CLASSIFICATION_TYPE":"U","MEAN_MOTION":14.79945665,"ECCENTRICITY":0.00006917,"INCLINATION":51.9019,"RA_OF_ASC_NODE":46.7721,"ARG_OF_PERICENTER":112.8393,"MEAN_ANOMALY":247.2643,"EPHEMERIS_TYPE":0,"NORAD_CAT_ID":68573,"ELEMENT_SET_NO":999,"REV_AT_EPOCH":1610,"BSTAR":0.00028803945,"MEAN_MOTION_DOT":0.00001976,"MEAN_MOTION_DDOT":0},{"OBJECT_NAME":"KUIPER-00189","OBJECT_ID":"2026-072B","EPOCH":"2026-07-21T06:58:48.182880","CLASSIFICATION_TYPE":"U","MEAN_MOTION":14.79939525,"ECCENTRICITY":0.00007835,"INCLINATION":51.9011,"RA_OF_ASC_NODE":47.3269,"ARG_OF_PERICENTER":124.1486,"MEAN_ANOMALY":235.9551,"EPHEMERIS_TYPE":0,"NORAD_CAT_ID":68574,"ELEMENT_SET_NO":999,"REV_AT_EPOCH":1613,"BSTAR":0.00032025217,"MEAN_MOTION_DOT":0.00002221,"MEAN_MOTION_DDOT":0},{"OBJECT_NAME":"KUIPER-00192","OBJECT_ID":"2026-072C","EPOCH":"2026-07-21T12:46:53.227200","CLASSIFICATION_TYPE":"U","MEAN_MOTION":14.79950718,"ECCENTRICITY":0.00008181,"INCLINATION":51.9006,"RA_OF_ASC_NODE":41.2708,"ARG_OF_PERICENTER":121.7756,"MEAN_ANOMALY":238.3286,"EPHEMERIS_TYPE":0,"NORAD_CAT_ID":68575,"ELEMENT_SET_NO":999,"REV_AT_EPOCH":1624,"BSTAR":0.00034364978,"MEAN_MOTION_DOT":0.00002401,"MEAN_MOTION_DDOT":0},{"OBJECT_NAME":"KUIPER-00193","OBJECT_ID":"2026-072D","EPOCH":"2026-07-21T13:02:27.742560","CLASSIFICATION_TYPE":"U","MEAN_MOTION":14.79922693,"ECCENTRICITY":0.00012949,"INCLINATION":51.9065,"RA_OF_ASC_NODE":31.2425,"ARG_OF_PERICENTER":1.7395,"MEAN_ANOMALY":358.3572,"EPHEMERIS_TYPE":0,"NORAD_CAT_ID":68576,"ELEMENT_SET_NO":999,"REV_AT_EPOCH":1638,"BSTAR":0.00030715643,"MEAN_MOTION_DOT":0.0000212,"MEAN_MOTION_DDOT":0},{"OBJECT_NAME":"KUIPER-00194","OBJECT_ID":"2026-072E","EPOCH":"2026-07-21T13:39:23.537088","CLASSIFICATION_TYPE":"U","MEAN_MOTION":14.79937514,"ECCENTRICITY":0.0000576,"INCLINATION":51.9026,"RA_OF_ASC_NODE":38.6239,"ARG_OF_PERICENTER":144.2121,"MEAN_ANOMALY":215.888,"EPHEMERIS_TYPE":0,"NORAD_CAT_ID":68577,"ELEMENT_SET_NO":999,"REV_AT_EPOCH":1628,"BSTAR":0.00038788951,"MEAN_MOTION_DOT":0.00002737,"MEAN_MOTION_DDOT":0},{"OBJECT_NAME":"KUIPER-00229","OBJECT_ID":"2026-072F","EPOCH":"2026-07-21T13:31:36.844032","CLASSIFICATION_TYPE":"U","MEAN_MOTION":14.79953626,"ECCENTRICITY":0.00008756,"INCLINATION":51.9027,"RA_OF_ASC_NODE":43.634,"ARG_OF_PERICENTER":131.2436,"MEAN_ANOMALY":228.8602,"EPHEMERIS_TYPE":0,"NORAD_CAT_ID":68578,"ELEMENT_SET_NO":999,"REV_AT_EPOCH":1621,"BSTAR":0.00032921957,"MEAN_MOTION_DOT":0.00002291,"MEAN_MOTION_DDOT":0},{"OBJECT_NAME":"KUIPER-00230","OBJECT_ID":"2026-072G","EPOCH":"2026-07-21T11:45:22.804992","CLASSIFICATION_TYPE":"U","MEAN_MOTION":15.38368374,"ECCENTRICITY":0.0002571,"INCLINATION":51.8769,"RA_OF_ASC_NODE":10.6119,"ARG_OF_PERICENTER":135.1991,"MEAN_ANOMALY":224.9204,"EPHEMERIS_TYPE":0,"NORAD_CAT_ID":68579,"ELEMENT_SET_NO":999,"REV_AT_EPOCH":1666,"BSTAR":0.00023312181,"MEAN_MOTION_DOT":0.00008574,"MEAN_MOTION_DDOT":0},{"OBJECT_NAME":"KUIPER-00231","OBJECT_ID":"2026-072H","EPOCH":"2026-07-21T14:00:01.999872","CLASSIFICATION_TYPE":"U","MEAN_MOTION":14.81833445,"ECCENTRICITY":0.0003049,"INCLINATION":51.8997,"RA_OF_ASC_NODE":15.8768,"ARG_OF_PERICENTER":94.3639,"MEAN_ANOMALY":347.0076,"EPHEMERIS_TYPE":0,"NORAD_CAT_ID":68580,"ELEMENT_SET_NO":999,"REV_AT_EPOCH":497,"BSTAR":-0.0055433411,"MEAN_MOTION_DOT":-0.00044164,"MEAN_MOTION_DDOT":0},{"OBJECT_NAME":"KUIPER-00234","OBJECT_ID":"2026-072J","EPOCH":"2026-07-20T23:52:52.860000","CLASSIFICATION_TYPE":"U","MEAN_MOTION":14.79900686,"ECCENTRICITY":0.00001825,"INCLINATION":51.901,"RA_OF_ASC_NODE":41.1401,"ARG_OF_PERICENTER":158.7215,"MEAN_ANOMALY":201.3755,"EPHEMERIS_TYPE":0,"NORAD_CAT_ID":68581,"ELEMENT_SET_NO":999,"REV_AT_EPOCH":1619,"BSTAR":0.00029770009,"MEAN_MOTION_DOT":0.00002047,"MEAN_MOTION_DDOT":0},{"OBJECT_NAME":"KUIPER-00236","OBJECT_ID":"2026-072K","EPOCH":"2026-07-21T04:31:07.372128","CLASSIFICATION_TYPE":"U","MEAN_MOTION":15.38193904,"ECCENTRICITY":0.00028864,"INCLINATION":51.8788,"RA_OF_ASC_NODE":12.3404,"ARG_OF_PERICENTER":135.8947,"MEAN_ANOMALY":224.2271,"EPHEMERIS_TYPE":0,"NORAD_CAT_ID":68582,"ELEMENT_SET_NO":999,"REV_AT_EPOCH":1661,"BSTAR":0.00045778172,"MEAN_MOTION_DOT":0.00017138,"MEAN_MOTION_DDOT":0},{"OBJECT_NAME":"KUIPER-00244","OBJECT_ID":"2026-072L","EPOCH":"2026-07-21T12:17:40.924608","CLASSIFICATION_TYPE":"U","MEAN_MOTION":14.79952673,"ECCENTRICITY":0.00014401,"INCLINATION":51.9016,"RA_OF_ASC_NODE":28.875,"ARG_OF_PERICENTER":138.0831,"MEAN_ANOMALY":222.0242,"EPHEMERIS_TYPE":0,"NORAD_CAT_ID":68583,"ELEMENT_SET_NO":999,"REV_AT_EPOCH":1641,"BSTAR":0.00034101428,"MEAN_MOTION_DOT":0.0000238,"MEAN_MOTION_DDOT":0},{"OBJECT_NAME":"KUIPER-00253","OBJECT_ID":"2026-072M","EPOCH":"2026-07-21T05:44:52.120032","CLASSIFICATION_TYPE":"U","MEAN_MOTION":14.79938834,"ECCENTRICITY":0.00006603,"INCLINATION":51.9047,"RA_OF_ASC_NODE":32.5878,"ARG_OF_PERICENTER":108.139,"MEAN_ANOMALY":251.9644,"EPHEMERIS_TYPE":0,"NORAD_CAT_ID":68584,"ELEMENT_SET_NO":999,"REV_AT_EPOCH":1633,"BSTAR":0.00031551966,"MEAN_MOTION_DOT":0.00002185,"MEAN_MOTION_DDOT":0},{"OBJECT_NAME":"KUIPER-00254","OBJECT_ID":"2026-072N","EPOCH":"2026-07-21T12:58:33.744576","CLASSIFICATION_TYPE":"U","MEAN_MOTION":14.79945954,"ECCENTRICITY":0.00017971,"INCLINATION":51.9045,"RA_OF_ASC_NODE":33.754,"ARG_OF_PERICENTER":130.5966,"MEAN_ANOMALY":229.5153,"EPHEMERIS_TYPE":0,"NORAD_CAT_ID":68585,"ELEMENT_SET_NO":999,"REV_AT_EPOCH":1634,"BSTAR":0.0003291393,"MEAN_MOTION_DOT":0.00002289,"MEAN_MOTION_DDOT":0},{"OBJECT_NAME":"KUIPER-00263","OBJECT_ID":"2026-072P","EPOCH":"2026-07-21T14:00:01.999872","CLASSIFICATION_TYPE":"U","MEAN_MOTION":14.79984436,"ECCENTRICITY":0.00007161,"INCLINATION":51.9027,"RA_OF_ASC_NODE":18.642,"ARG_OF_PERICENTER":105.9184,"MEAN_ANOMALY":34.9148,"EPHEMERIS_TYPE":0,"NORAD_CAT_ID":68586,"ELEMENT_SET_NO":999,"REV_AT_EPOCH":544,"BSTAR":-0.0022983519,"MEAN_MOTION_DOT":-0.00017718,"MEAN_MOTION_DDOT":0},{"OBJECT_NAME":"KUIPER-00269","OBJECT_ID":"2026-072Q","EPOCH":"2026-07-20T19:28:18.756480","CLASSIFICATION_TYPE":"U","MEAN_MOTION":14.79961901,"ECCENTRICITY":0.00004368,"INCLINATION":51.9014,"RA_OF_ASC_NODE":24.4718,"ARG_OF_PERICENTER":79.0959,"MEAN_ANOMALY":281.0053,"EPHEMERIS_TYPE":0,"NORAD_CAT_ID":68587,"ELEMENT_SET_NO":999,"REV_AT_EPOCH":1641,"BSTAR":0.00025352665,"MEAN_MOTION_DOT":0.00001713,"MEAN_MOTION_DDOT":0}]}
